DELTA 2 R/B(1)          
1 20453U 90008B   26064.65250895  .00079173  00000+0  94350-3 0  9999
2 20453  35.6043 201.3378 0086316 221.4085 138.0085 15.55371666925508
COSMOS 2058             
1 20465U 90010A   26064.41070003  .00005596  00000+0  33065-3 0  9994
2 20465  82.4668  51.6433 0009689 357.6971   2.4212 15.11275148941599
SL-14 R/B               
1 20466U 90010B   26064.57265215  .00000575  00000+0  66773-4 0  9998
2 20466  82.4990 271.2572 0018790 316.7303  43.2435 14.83565001927873
SL-14 R/B               
1 20511U 90018B   26064.51902412  .00000741  00000+0  89986-4 0  9994
2 20511  82.5195 226.9881 0017650 104.6746 255.6426 14.82139685921968
HST                     
1 20580U 90037B   26064.11414900  .00009685  00000+0  32209-3 0  9998
2 20580  28.4704  71.2102 0001764  80.5855 279.4940 15.29397580772611
SL-16 R/B               
1 20625U 90046B   26064.38499147 -.00000211  00000+0 -84043-4 0  9995
2 20625  70.9997 306.9555 0016185 305.3794  54.5816 14.15014044847780
COSMOS 2084             
1 20663U 90055A   26064.60422775  .00003876  00000+0  28030-3 0  9996
2 20663  62.7925 349.5112 0017747 188.9215 171.1573 15.05621808935700
SL-6 R/B(2)             
1 20666U 90055D   26064.58128547  .00002776  00000+0  21557-3 0  9991
2 20666  62.7816 267.8225 0024113 345.9905  14.0523 15.03571341937576
SL-8 R/B                
1 20775U 90078B   26064.54364729  .00018379  00000+0  54091-3 0  9992
2 20775  82.8998 255.0401 0363148  27.9255 334.0934 14.88899069808687
SL-8 R/B                
1 21088U 91006B   26064.54751937  .00000083  00000+0  67369-4 0  9999
2 21088  82.9465 173.1250 0023299  49.5220 326.1890 13.77493680763509
OKEAN-3                 
1 21397U 91039A   26064.62273959  .00004480  00000+0  31523-3 0  9997
2 21397  82.5194 340.7828 0014200 353.2959   6.8075 15.04769051864426
COSMOS 2151             
1 21422U 91042A   26064.61439489  .00002771  00000+0  21989-3 0  9997
2 21422  82.4928  87.6083 0014053  75.8585 284.4200 15.00087077862583
