CCSDS_OMM_VERS = 2.0
CREATION_DATE  = 
ORIGINATOR     = 

OBJECT_NAME    = DELTA 2 R/B(1)
OBJECT_ID      = 1990-008B
CENTER_NAME    = EARTH
REF_FRAME      = TEME
TIME_SYSTEM    = UTC
MEAN_ELEMENT_THEORY = SGP/SGP4

EPOCH          = 2026-03-05T15:39:36.773280
MEAN_MOTION    = 15.55371666
ECCENTRICITY   = .0086316
INCLINATION    = 35.6043
RA_OF_ASC_NODE = 201.3378
ARG_OF_PERICENTER = 221.4085
MEAN_ANOMALY   = 138.0085

EPHEMERIS_TYPE = 0
CLASSIFICATION_TYPE = U
NORAD_CAT_ID   = 20453
ELEMENT_SET_NO = 999
REV_AT_EPOCH   = 92550
BSTAR          = .9435009E-3
MEAN_MOTION_DOT = .79173E-3
MEAN_MOTION_DDOT = 0

CCSDS_OMM_VERS = 2.0
CREATION_DATE  = 
ORIGINATOR     = 

OBJECT_NAME    = COSMOS 2058
OBJECT_ID      = 1990-010A
CENTER_NAME    = EARTH
REF_FRAME      = TEME
TIME_SYSTEM    = UTC
MEAN_ELEMENT_THEORY = SGP/SGP4

EPOCH          = 2026-03-05T09:51:24.482592
MEAN_MOTION    = 15.11275148
ECCENTRICITY   = .00096895
INCLINATION    = 82.4668
RA_OF_ASC_NODE = 51.6433
ARG_OF_PERICENTER = 357.6971
MEAN_ANOMALY   = 2.4212

EPHEMERIS_TYPE = 0
CLASSIFICATION_TYPE = U
NORAD_CAT_ID   = 20465
ELEMENT_SET_NO = 999
REV_AT_EPOCH   = 94159
BSTAR          = .33065125E-3
MEAN_MOTION_DOT = .5596E-4
MEAN_MOTION_DDOT = 0

CCSDS_OMM_VERS = 2.0
CREATION_DATE  = 
ORIGINATOR     = 

OBJECT_NAME    = SL-14 R/B
OBJECT_ID      = 1990-010B
CENTER_NAME    = EARTH
REF_FRAME      = TEME
TIME_SYSTEM    = UTC
MEAN_ELEMENT_THEORY = SGP/SGP4

EPOCH          = 2026-03-05T13:44:37.145760
MEAN_MOTION    = 14.83565001
ECCENTRICITY   = .00187905
INCLINATION    = 82.4990
RA_OF_ASC_NODE = 271.2572
ARG_OF_PERICENTER = 316.7303
MEAN_ANOMALY   = 43.2435

EPHEMERIS_TYPE = 0
CLASSIFICATION_TYPE = U
NORAD_CAT_ID   = 20466
ELEMENT_SET_NO = 999
REV_AT_EPOCH   = 92787
BSTAR          = .66772993E-4
MEAN_MOTION_DOT = .575E-5
MEAN_MOTION_DDOT = 0

CCSDS_OMM_VERS = 2.0
CREATION_DATE  = 
ORIGINATOR     = 

OBJECT_NAME    = SL-14 R/B
OBJECT_ID      = 1990-018B
CENTER_NAME    = EARTH
REF_FRAME      = TEME
TIME_SYSTEM    = UTC
MEAN_ELEMENT_THEORY = SGP/SGP4

EPOCH          = 2026-03-05T12:27:23.683968
MEAN_MOTION    = 14.82139685
ECCENTRICITY   = .00176507
INCLINATION    = 82.5195
RA_OF_ASC_NODE = 226.9881
ARG_OF_PERICENTER = 104.6746
MEAN_ANOMALY   = 255.6426

EPHEMERIS_TYPE = 0
CLASSIFICATION_TYPE = U
NORAD_CAT_ID   = 20511
ELEMENT_SET_NO = 999
REV_AT_EPOCH   = 92196
BSTAR          = .89986E-4
MEAN_MOTION_DOT = .741E-5
MEAN_MOTION_DDOT = 0

CCSDS_OMM_VERS = 2.0
CREATION_DATE  = 
ORIGINATOR     = 

OBJECT_NAME    = HST
OBJECT_ID      = 1990-037B
CENTER_NAME    = EARTH
REF_FRAME      = TEME
TIME_SYSTEM    = UTC
MEAN_ELEMENT_THEORY = SGP/SGP4

EPOCH          = 2026-03-05T02:44:22.473600
MEAN_MOTION    = 15.29397580
ECCENTRICITY   = .00017647
INCLINATION    = 28.4704
RA_OF_ASC_NODE = 71.2102
ARG_OF_PERICENTER = 80.5855
MEAN_ANOMALY   = 279.4940

EPHEMERIS_TYPE = 0
CLASSIFICATION_TYPE = U
NORAD_CAT_ID   = 20580
ELEMENT_SET_NO = 999
REV_AT_EPOCH   = 77261
BSTAR          = .32208786E-3
MEAN_MOTION_DOT = .9685E-4
MEAN_MOTION_DDOT = 0

CCSDS_OMM_VERS = 2.0
CREATION_DATE  = 
ORIGINATOR     = 

OBJECT_NAME    = SL-16 R/B
OBJECT_ID      = 1990-046B
CENTER_NAME    = EARTH
REF_FRAME      = TEME
TIME_SYSTEM    = UTC
MEAN_ELEMENT_THEORY = SGP/SGP4

EPOCH          = 2026-03-05T09:14:23.263008
MEAN_MOTION    = 14.15014044
ECCENTRICITY   = .00161851
INCLINATION    = 70.9997
RA_OF_ASC_NODE = 306.9555
ARG_OF_PERICENTER = 305.3794
MEAN_ANOMALY   = 54.5816

EPHEMERIS_TYPE = 0
CLASSIFICATION_TYPE = U
NORAD_CAT_ID   = 20625
ELEMENT_SET_NO = 999
REV_AT_EPOCH   = 84778
BSTAR          = -.84042542E-4
MEAN_MOTION_DOT = -.211E-5
MEAN_MOTION_DDOT = 0

CCSDS_OMM_VERS = 2.0
CREATION_DATE  = 
ORIGINATOR     = 

OBJECT_NAME    = COSMOS 2084
OBJECT_ID      = 1990-055A
CENTER_NAME    = EARTH
REF_FRAME      = TEME
TIME_SYSTEM    = UTC
MEAN_ELEMENT_THEORY = SGP/SGP4

EPOCH          = 2026-03-05T14:30:05.277600
MEAN_MOTION    = 15.05621808
ECCENTRICITY   = .0017747
INCLINATION    = 62.7925
RA_OF_ASC_NODE = 349.5112
ARG_OF_PERICENTER = 188.9215
MEAN_ANOMALY   = 171.1573

EPHEMERIS_TYPE = 0
CLASSIFICATION_TYPE = U
NORAD_CAT_ID   = 20663
ELEMENT_SET_NO = 999
REV_AT_EPOCH   = 93570
BSTAR          = .28029945E-3
MEAN_MOTION_DOT = .3876E-4
MEAN_MOTION_DDOT = 0

CCSDS_OMM_VERS = 2.0
CREATION_DATE  = 
ORIGINATOR     = 

OBJECT_NAME    = SL-6 R/B(2)
OBJECT_ID      = 1990-055D
CENTER_NAME    = EARTH
REF_FRAME      = TEME
TIME_SYSTEM    = UTC
MEAN_ELEMENT_THEORY = SGP/SGP4

EPOCH          = 2026-03-05T13:57:03.064608
MEAN_MOTION    = 15.03571341
ECCENTRICITY   = .00241138
INCLINATION    = 62.7816
RA_OF_ASC_NODE = 267.8225
ARG_OF_PERICENTER = 345.9905
MEAN_ANOMALY   = 14.0523

EPHEMERIS_TYPE = 0
CLASSIFICATION_TYPE = U
NORAD_CAT_ID   = 20666
ELEMENT_SET_NO = 999
REV_AT_EPOCH   = 93757
BSTAR          = .21556522E-3
MEAN_MOTION_DOT = .2776E-4
MEAN_MOTION_DDOT = 0

CCSDS_OMM_VERS = 2.0
CREATION_DATE  = 
ORIGINATOR     = 

OBJECT_NAME    = SL-8 R/B
OBJECT_ID      = 1990-078B
CENTER_NAME    = EARTH
REF_FRAME      = TEME
TIME_SYSTEM    = UTC
MEAN_ELEMENT_THEORY = SGP/SGP4

EPOCH          = 2026-03-05T13:02:51.125856
MEAN_MOTION    = 14.88899069
ECCENTRICITY   = .03631482
INCLINATION    = 82.8998
RA_OF_ASC_NODE = 255.0401
ARG_OF_PERICENTER = 27.9255
MEAN_ANOMALY   = 334.0934

EPHEMERIS_TYPE = 0
CLASSIFICATION_TYPE = U
NORAD_CAT_ID   = 20775
ELEMENT_SET_NO = 999
REV_AT_EPOCH   = 80868
BSTAR          = .54091247E-3
MEAN_MOTION_DOT = .18379E-3
MEAN_MOTION_DDOT = 0

CCSDS_OMM_VERS = 2.0
CREATION_DATE  = 
ORIGINATOR     = 

OBJECT_NAME    = SL-8 R/B
OBJECT_ID      = 1991-006B
CENTER_NAME    = EARTH
REF_FRAME      = TEME
TIME_SYSTEM    = UTC
MEAN_ELEMENT_THEORY = SGP/SGP4

EPOCH          = 2026-03-05T13:08:25.673568
MEAN_MOTION    = 13.77493680
ECCENTRICITY   = .00232995
INCLINATION    = 82.9465
RA_OF_ASC_NODE = 173.1250
ARG_OF_PERICENTER = 49.5220
MEAN_ANOMALY   = 326.1890

EPHEMERIS_TYPE = 0
CLASSIFICATION_TYPE = U
NORAD_CAT_ID   = 21088
ELEMENT_SET_NO = 999
REV_AT_EPOCH   = 76350
BSTAR          = .67369167E-4
MEAN_MOTION_DOT = .83E-6
MEAN_MOTION_DDOT = 0

CCSDS_OMM_VERS = 2.0
CREATION_DATE  = 
ORIGINATOR     = 

OBJECT_NAME    = OKEAN-3
OBJECT_ID      = 1991-039A
CENTER_NAME    = EARTH
REF_FRAME      = TEME
TIME_SYSTEM    = UTC
MEAN_ELEMENT_THEORY = SGP/SGP4

EPOCH          = 2026-03-05T14:56:44.700576
MEAN_MOTION    = 15.04769051
ECCENTRICITY   = .00142008
INCLINATION    = 82.5194
RA_OF_ASC_NODE = 340.7828
ARG_OF_PERICENTER = 353.2959
MEAN_ANOMALY   = 6.8075

EPHEMERIS_TYPE = 0
CLASSIFICATION_TYPE = U
NORAD_CAT_ID   = 21397
ELEMENT_SET_NO = 999
REV_AT_EPOCH   = 86442
BSTAR          = .31523248E-3
MEAN_MOTION_DOT = .448E-4
MEAN_MOTION_DDOT = 0

CCSDS_OMM_VERS = 2.0
CREATION_DATE  = 
ORIGINATOR     = 

OBJECT_NAME    = COSMOS 2151
OBJECT_ID      = 1991-042A
CENTER_NAME    = EARTH
REF_FRAME      = TEME
TIME_SYSTEM    = UTC
MEAN_ELEMENT_THEORY = SGP/SGP4

EPOCH          = 2026-03-05T14:44:43.718496
MEAN_MOTION    = 15.00087077
ECCENTRICITY   = .00140536
INCLINATION    = 82.4928
RA_OF_ASC_NODE = 87.6083
ARG_OF_PERICENTER = 75.8585
MEAN_ANOMALY   = 284.4200

EPHEMERIS_TYPE = 0
CLASSIFICATION_TYPE = U
NORAD_CAT_ID   = 21422
ELEMENT_SET_NO = 999
REV_AT_EPOCH   = 86258
BSTAR          = .2198947E-3
MEAN_MOTION_DOT = .2771E-4
MEAN_MOTION_DDOT = 0

